[
  {
    "COMMENT": "GENERATED VIA SPACETRACK.ORG API",
    "ORIGINATOR": "18 SPCS",
    "NORAD_CAT_ID": "33105",
    "OBJECT_NAME": "JASON 2",
    "OBJECT_TYPE": "PAYLOAD",
    "CLASSIFICATION_TYPE": "U",
    "INTLDES": "08032A",
    "EPOCH": "2023-07-03 01:39:46",
    "EPOCH_MICROSECONDS": "160928",
    "MEAN_MOTION": "12.87660994",
    "ECCENTRICITY": "0.0008347",
    "INCLINATION": "66.0384",
    "RA_OF_ASC_NODE": "162.0508",
    "ARG_OF_PERICENTER": "269.4055",
    "MEAN_ANOMALY": "166.1522",
    "EPHEMERIS_TYPE": "0",
    "ELEMENT_SET_NO": "999",
    "REV_AT_EPOCH": "70472",
    "BSTAR": "-0.000021116",
    "MEAN_MOTION_DOT": "-0.00000068",
    "MEAN_MOTION_DDOT": "0",
    "FILE": "3947978",
    "TLE_LINE0": "0 JASON 2",
    "TLE_LINE1": "1 33105U 08032A   23184.06928427 -.00000068  00000-0 -21116-4 0  9992",
    "TLE_LINE2": "2 33105  66.0384 162.0508 0008347 269.4055 166.1522 12.87660994704721",
    "OBJECT_ID": "2008-032A",
    "OBJECT_NUMBER": "33105",
    "SEMIMAJOR_AXIS": "7688.958",
    "PERIOD": "111.831",
    "APOGEE": "1317.241",
    "PERIGEE": "1304.405",
    "DECAYED": "0"
  },
  {
    "COMMENT": "GENERATED VIA SPACETRACK.ORG API",
    "ORIGINATOR": "18 SPCS",
    "NORAD_CAT_ID": "33105",
    "OBJECT_NAME": "JASON 2",
    "OBJECT_TYPE": "PAYLOAD",
    "CLASSIFICATION_TYPE": "U",
    "INTLDES": "08032A",
    "EPOCH": "2023-07-05 07:51:53",
    "EPOCH_MICROSECONDS": "475264",
    "MEAN_MOTION": "12.87661076",
    "ECCENTRICITY": "0.0008343",
    "INCLINATION": "66.0386",
    "RA_OF_ASC_NODE": "157.3022",
    "ARG_OF_PERICENTER": "269.3793",
    "MEAN_ANOMALY": "194.2221",
    "EPHEMERIS_TYPE": "0",
    "ELEMENT_SET_NO": "999",
    "REV_AT_EPOCH": "70501",
    "BSTAR": "0.000023488",
    "MEAN_MOTION_DOT": "-0.00000056",
    "MEAN_MOTION_DDOT": "0",
    "FILE": "3950020",
    "TLE_LINE0": "0 JASON 2",
    "TLE_LINE1": "1 33105U 08032A   23186.32770226 -.00000056  00000-0  23488-4 0  9995",
    "TLE_LINE2": "2 33105  66.0386 157.3022 0008343 269.3793 194.2221 12.87661076705018",
    "OBJECT_ID": "2008-032A",
    "OBJECT_NUMBER": "33105",
    "SEMIMAJOR_AXIS": "7688.958",
    "PERIOD": "111.831",
    "APOGEE": "1317.237",
    "PERIGEE": "1304.408",
    "DECAYED": "0"
  },
  {
    "COMMENT": "GENERATED VIA SPACETRACK.ORG API",
    "ORIGINATOR": "18 SPCS",
    "NORAD_CAT_ID": "33105",
    "OBJECT_NAME": "JASON 2",
    "OBJECT_TYPE": "PAYLOAD",
    "CLASSIFICATION_TYPE": "U",
    "INTLDES": "08032A",
    "EPOCH": "2023-07-07 08:34:45",
    "EPOCH_MICROSECONDS": "184224",
    "MEAN_MOTION": "12.87661187",
    "ECCENTRICITY": "0.0008329",
    "INCLINATION": "66.0388",
    "RA_OF_ASC_NODE": "153.0343",
    "ARG_OF_PERICENTER": "269.353",
    "MEAN_ANOMALY": "242.4588",
    "EPHEMERIS_TYPE": "0",
    "ELEMENT_SET_NO": "999",
    "REV_AT_EPOCH": "70527",
    "BSTAR": "0.000087427",
    "MEAN_MOTION_DOT": "-0.0000004",
    "MEAN_MOTION_DDOT": "0",
    "FILE": "3951772",
    "TLE_LINE0": "0 JASON 2",
    "TLE_LINE1": "1 33105U 08032A   23188.35746741 -.00000040  00000-0  87427-4 0  9991",
    "TLE_LINE2": "2 33105  66.0388 153.0343 0008329 269.3530 242.4588 12.87661187705275",
    "OBJECT_ID": "2008-032A",
    "OBJECT_NUMBER": "33105",
    "SEMIMAJOR_AXIS": "7688.957",
    "PERIOD": "111.831",
    "APOGEE": "1317.226",
    "PERIGEE": "1304.418",
    "DECAYED": "0"
  },
  {
    "COMMENT": "GENERATED VIA SPACETRACK.ORG API",
    "ORIGINATOR": "18 SPCS",
    "NORAD_CAT_ID": "33105",
    "OBJECT_NAME": "JASON 2",
    "OBJECT_TYPE": "PAYLOAD",
    "CLASSIFICATION_TYPE": "U",
    "INTLDES": "08032A",
    "EPOCH": "2023-07-09 19:29:02",
    "EPOCH_MICROSECONDS": "447232",
    "MEAN_MOTION": "12.87661277",
    "ECCENTRICITY": "0.0008307",
    "INCLINATION": "66.0392",
    "RA_OF_ASC_NODE": "147.8738",
    "ARG_OF_PERICENTER": "269.2738",
    "MEAN_ANOMALY": "98.8273",
    "EPHEMERIS_TYPE": "0",
    "ELEMENT_SET_NO": "999",
    "REV_AT_EPOCH": "70559",
    "BSTAR": "0.00014691",
    "MEAN_MOTION_DOT": "-0.00000025",
    "MEAN_MOTION_DDOT": "0",
    "FILE": "3953821",
    "TLE_LINE0": "0 JASON 2",
    "TLE_LINE1": "1 33105U 08032A   23190.81183388 -.00000025  00000-0  14691-3 0  9992",
    "TLE_LINE2": "2 33105  66.0392 147.8738 0008307 269.2738  98.8273 12.87661277705593",
    "OBJECT_ID": "2008-032A",
    "OBJECT_NUMBER": "33105",
    "SEMIMAJOR_AXIS": "7688.957",
    "PERIOD": "111.831",
    "APOGEE": "1317.209",
    "PERIGEE": "1304.435",
    "DECAYED": "0"
  },
  {
    "COMMENT": "GENERATED VIA SPACETRACK.ORG API",
    "ORIGINATOR": "18 SPCS",
    "NORAD_CAT_ID": "33105",
    "OBJECT_NAME": "JASON 2",
    "OBJECT_TYPE": "PAYLOAD",
    "CLASSIFICATION_TYPE": "U",
    "INTLDES": "08032A",
    "EPOCH": "2023-07-12 00:02:04",
    "EPOCH_MICROSECONDS": "475616",
    "MEAN_MOTION": "12.87661266",
    "ECCENTRICITY": "0.0008291",
    "INCLINATION": "66.0395",
    "RA_OF_ASC_NODE": "143.2701",
    "ARG_OF_PERICENTER": "269.2151",
    "MEAN_ANOMALY": "167.983",
    "EPHEMERIS_TYPE": "0",
    "ELEMENT_SET_NO": "999",
    "REV_AT_EPOCH": "70587",
    "BSTAR": "0.000047854",
    "MEAN_MOTION_DOT": "-0.0000005",
    "MEAN_MOTION_DDOT": "0",
    "FILE": "3955959",
    "TLE_LINE0": "0 JASON 2",
    "TLE_LINE1": "1 33105U 08032A   23193.00144069 -.00000050  00000-0  47854-4 0  9995",
    "TLE_LINE2": "2 33105  66.0395 143.2701 0008291 269.2151 167.9830 12.87661266705873",
    "OBJECT_ID": "2008-032A",
    "OBJECT_NUMBER": "33105",
    "SEMIMAJOR_AXIS": "7688.957",
    "PERIOD": "111.831",
    "APOGEE": "1317.197",
    "PERIGEE": "1304.447",
    "DECAYED": "0"
  },
  {
    "COMMENT": "GENERATED VIA SPACETRACK.ORG API",
    "ORIGINATOR": "18 SPCS",
    "NORAD_CAT_ID": "33105",
    "OBJECT_NAME": "JASON 2",
    "OBJECT_TYPE": "PAYLOAD",
    "CLASSIFICATION_TYPE": "U",
    "INTLDES": "08032A",
    "EPOCH": "2023-07-14 06:28:00",
    "EPOCH_MICROSECONDS": "924096",
    "MEAN_MOTION": "12.87661353",
    "ECCENTRICITY": "0.000827",
    "INCLINATION": "66.0399",
    "RA_OF_ASC_NODE": "138.5016",
    "ARG_OF_PERICENTER": "269.1461",
    "MEAN_ANOMALY": "240.5791",
    "EPHEMERIS_TYPE": "0",
    "ELEMENT_SET_NO": "999",
    "REV_AT_EPOCH": "70616",
    "BSTAR": "0.000008484",
    "MEAN_MOTION_DOT": "-0.0000006",
    "MEAN_MOTION_DDOT": "0",
    "FILE": "3957437",
    "TLE_LINE0": "0 JASON 2",
    "TLE_LINE1": "1 33105U 08032A   23195.26945514 -.00000060  00000-0  84840-5 0  9997",
    "TLE_LINE2": "2 33105  66.0399 138.5016 0008270 269.1461 240.5791 12.87661353706167",
    "OBJECT_ID": "2008-032A",
    "OBJECT_NUMBER": "33105",
    "SEMIMAJOR_AXIS": "7688.956",
    "PERIOD": "111.831",
    "APOGEE": "1317.180",
    "PERIGEE": "1304.463",
    "DECAYED": "0"
  },
  {
    "COMMENT": "GENERATED VIA SPACETRACK.ORG API",
    "ORIGINATOR": "18 SPCS",
    "NORAD_CAT_ID": "33105",
    "OBJECT_NAME": "JASON 2",
    "OBJECT_TYPE": "PAYLOAD",
    "CLASSIFICATION_TYPE": "U",
    "INTLDES": "08032A",
    "EPOCH": "2023-07-16 14:30:12",
    "EPOCH_MICROSECONDS": "3840",
    "MEAN_MOTION": "12.87661189",
    "ECCENTRICITY": "0.0008235",
    "INCLINATION": "66.0401",
    "RA_OF_ASC_NODE": "133.5925",
    "ARG_OF_PERICENTER": "269.0825",
    "MEAN_ANOMALY": "262.9616",
    "EPHEMERIS_TYPE": "0",
    "ELEMENT_SET_NO": "999",
    "REV_AT_EPOCH": "70646",
    "BSTAR": "-0.000094481",
    "MEAN_MOTION_DOT": "-0.00000086",
    "MEAN_MOTION_DDOT": "0",
    "FILE": "3959582",
    "TLE_LINE0": "0 JASON 2",
    "TLE_LINE1": "1 33105U 08032A   23197.60430560 -.00000086  00000-0 -94481-4 0  9997",
    "TLE_LINE2": "2 33105  66.0401 133.5925 0008235 269.0825 262.9616 12.87661189706463",
    "OBJECT_ID": "2008-032A",
    "OBJECT_NUMBER": "33105",
    "SEMIMAJOR_AXIS": "7688.957",
    "PERIOD": "111.831",
    "APOGEE": "1317.154",
    "PERIGEE": "1304.490",
    "DECAYED": "0"
  },
  {
    "COMMENT": "GENERATED VIA SPACETRACK.ORG API",
    "ORIGINATOR": "18 SPCS",
    "NORAD_CAT_ID": "33105",
    "OBJECT_NAME": "JASON 2",
    "OBJECT_TYPE": "PAYLOAD",
    "CLASSIFICATION_TYPE": "U",
    "INTLDES": "08032A",
    "EPOCH": "2023-07-19 05:46:23",
    "EPOCH_MICROSECONDS": "94912",
    "MEAN_MOTION": "12.87661144",
    "ECCENTRICITY": "0.0008197",
    "INCLINATION": "66.0393",
    "RA_OF_ASC_NODE": "128.0496",
    "ARG_OF_PERICENTER": "268.8678",
    "MEAN_ANOMALY": "242.4691",
    "EPHEMERIS_TYPE": "0",
    "ELEMENT_SET_NO": "999",
    "REV_AT_EPOCH": "70680",
    "BSTAR": "-0.000041026",
    "MEAN_MOTION_DOT": "-0.00000073",
    "MEAN_MOTION_DDOT": "0",
    "FILE": "3961885",
    "TLE_LINE0": "0 JASON 2",
    "TLE_LINE1": "1 33105U 08032A   23200.24054508 -.00000073  00000-0 -41026-4 0  9999",
    "TLE_LINE2": "2 33105  66.0393 128.0496 0008197 268.8678 242.4691 12.87661144706800",
    "OBJECT_ID": "2008-032A",
    "OBJECT_NUMBER": "33105",
    "SEMIMAJOR_AXIS": "7688.957",
    "PERIOD": "111.831",
    "APOGEE": "1317.125",
    "PERIGEE": "1304.520",
    "DECAYED": "0"
  },
  {
    "COMMENT": "GENERATED VIA SPACETRACK.ORG API",
    "ORIGINATOR": "18 SPCS",
    "NORAD_CAT_ID": "33105",
    "OBJECT_NAME": "JASON 2",
    "OBJECT_TYPE": "PAYLOAD",
    "CLASSIFICATION_TYPE": "U",
    "INTLDES": "08032A",
    "EPOCH": "2023-07-21 06:19:01",
    "EPOCH_MICROSECONDS": "452864",
    "MEAN_MOTION": "12.87661106",
    "ECCENTRICITY": "0.0008201",
    "INCLINATION": "66.0394",
    "RA_OF_ASC_NODE": "123.7969",
    "ARG_OF_PERICENTER": "268.8752",
    "MEAN_ANOMALY": "257.7671",
    "EPHEMERIS_TYPE": "0",
    "ELEMENT_SET_NO": "999",
    "REV_AT_EPOCH": "70706",
    "BSTAR": "-0.000032237",
    "MEAN_MOTION_DOT": "-0.0000007",
    "MEAN_MOTION_DDOT": "0",
    "FILE": "3963321",
    "TLE_LINE0": "0 JASON 2",
    "TLE_LINE1": "1 33105U 08032A   23202.26321126 -.00000070  00000-0 -32237-4 0  9997",
    "TLE_LINE2": "2 33105  66.0394 123.7969 0008201 268.8752 257.7671 12.87661106707061",
    "OBJECT_ID": "2008-032A",
    "OBJECT_NUMBER": "33105",
    "SEMIMAJOR_AXIS": "7688.957",
    "PERIOD": "111.831",
    "APOGEE": "1317.128",
    "PERIGEE": "1304.517",
    "DECAYED": "0"
  }
]